GLOBALSTAR M094 [+]     
1 39074U 13005C   24008.07799442 -.00000107  00000+0 -15627-4 0  9992
2 39074  51.9985 343.9644 0000204 100.6386 259.4503 12.62270755505954
GLOBALSTAR M096 [+]     
1 39075U 13005D   24008.48731501 -.00000104  00000+0  11373-7 0  9993
2 39075  52.0092  30.8224 0000551 155.0196 205.0697 12.62267348505258
GLOBALSTAR M078 [+]     
1 39076U 13005E   24007.58983809 -.00000120  00000+0 -88478-4 0  9990
2 39076  51.9872 118.7786 0001748 102.3421 257.7642 12.62258496503411
GLOBALSTAR M095 [+]     
1 39077U 13005F   24007.69516637 -.00000117  00000+0 -72102-4 0  9997
2 39077  51.9799 115.9147 0001500 122.0394 238.0618 12.62272240503287
GLOBALSTAR M087 [+]     
1 52888U 22064A   24008.15509125 -.00000101  00000+0  52703-4 0  9990
2 52888  51.9769  49.8872 0008991 316.9220  43.0976 13.37561921 75973
